STARLINK-1536           
1 46070U 20055AV  25287.32247750  .00001570  00000+0  12421-3 0  9998
2 46070  53.0555  33.6862 0000671   0.2747 359.8243 15.06403785287251
STARLINK-1542           
1 46073U 20055AY  25287.31509270  .00000431  00000+0  47844-4 0  9991
2 46073  53.0537  33.7185 0001196  57.1747 302.9357 15.06399001287246
STARLINK-1549           
1 46074U 20055AZ  25287.30035240 -.00007307  00000+0 -47231-3 0  9992
2 46074  53.0530  33.7834 0001507  98.2345 261.8815 15.06389320287231
STARLINK-1551           
1 46075U 20055BA  25287.32615711 -.00001418  00000+0 -76318-4 0  9998
2 46075  53.0558  33.6674 0000605 349.2458  10.8518 15.06396823287244
STARLINK-1552           
1 46076U 20055BB  25287.28561883  .00002216  00000+0  16765-3 0  9998
2 46076  53.0543  33.8490 0002143  81.1431 278.9801 15.06392596287222
STARLINK-1559           
1 46077U 20055BC  25287.00739366  .00056587  00000+0  28206-2 0  9994
2 46077  53.0477  29.5577 0004447 288.5335  71.5175 15.17020590287238
STARLINK-1566           
1 46079U 20055BE  25287.30404286  .00000303  00000+0  39282-4 0  9992
2 46079  53.0523  33.7679 0001723  95.7032 264.4154 15.06386749287248
STARLINK-1568           
1 46080U 20055BF  25287.24748254  .00031657  00000+0  10251-2 0  9992
2 46080  53.0665   4.6078 0002189 339.6296  20.4616 15.31773281287631
STARLINK-1578           
1 46082U 20055BH  25286.58895012  .00001308  00000+0  10661-3 0  9991
2 46082  53.0551  36.9768 0001025  84.8285 275.2821 15.06415523287133
STARLINK-1579           
1 46083U 20055BJ  25287.28836070 -.00001478  00000+0 -80397-4 0  9993
2 46083  53.0538  33.8262 0001521  92.2110 267.9053 15.06382453287236
STARLINK-1585           
1 46117U 20057A   25287.33335648  .00078153  00000+0  44584-2 0  9992
2 46117  53.0536 233.5620 0001536  62.7179  36.5995 15.12076108  5767
STARLINK-1593           
1 46119U 20057C   25287.33335648  .00099177  00000+0  53333-2 0  9995
2 46119  53.0540 253.8659 0001545  89.2255 222.5841 15.14056044  5698
STARLINK-1601           
1 46120U 20057D   25287.33335648  .01128286  00000+0  57206-1 0  9994
2 46120  53.0536 253.5213 0001338  79.1472 130.3800 15.13601537  5803
STARLINK-1605           
1 46123U 20057G   25287.05048415  .00111170  00000+0  23597-2 0  9999
2 46123  53.0501 202.7407 0013292  86.8088 273.4438 15.44113137285971
STARLINK-1614           
1 46124U 20057H   25287.17262850  .00118255  00000+0  24616-2 0  9998
2 46124  53.0477 201.9954 0014103  86.7683 273.4936 15.44642205284722
STARLINK-1621           
1 46127U 20057L   25287.33335648  .00153051  00000+0  40852-2 0  9998
2 46127  53.0523 229.5405 0005235 110.8010  67.9464 15.37059700  5607
