[{"OBJECT_NAME":"STARLINK-1536","OBJECT_ID":"2020-055AV","EPOCH":"2025-10-14T07:44:22.056000","MEAN_MOTION":15.06403785,"ECCENTRICITY":6.717e-5,"INCLINATION":53.0555,"RA_OF_ASC_NODE":33.6862,"ARG_OF_PERICENTER":0.2747,"MEAN_ANOMALY":359.8243,"EPHEMERIS_TYPE":0,"CLASSIFICATION_TYPE":"U","NORAD_CAT_ID":46070,"ELEMENT_SET_NO":999,"REV_AT_EPOCH":28725,"BSTAR":0.00012421314,"MEAN_MOTION_DOT":1.57e-5,"MEAN_MOTION_DDOT":0},{"OBJECT_NAME":"STARLINK-1542","OBJECT_ID":"2020-055AY","EPOCH":"2025-10-14T07:33:44.009280","MEAN_MOTION":15.06399001,"ECCENTRICITY":0.00011964,"INCLINATION":53.0537,"RA_OF_ASC_NODE":33.7185,"ARG_OF_PERICENTER":57.1747,"MEAN_ANOMALY":302.9357,"EPHEMERIS_TYPE":0,"CLASSIFICATION_TYPE":"U","NORAD_CAT_ID":46073,"ELEMENT_SET_NO":999,"REV_AT_EPOCH":28724,"BSTAR":4.7843844e-5,"MEAN_MOTION_DOT":4.31e-6,"MEAN_MOTION_DDOT":0},{"OBJECT_NAME":"STARLINK-1549","OBJECT_ID":"2020-055AZ","EPOCH":"2025-10-14T07:12:30.447360","MEAN_MOTION":15.0638932,"ECCENTRICITY":0.00015072,"INCLINATION":53.053,"RA_OF_ASC_NODE":33.7834,"ARG_OF_PERICENTER":98.2345,"MEAN_ANOMALY":261.8815,"EPHEMERIS_TYPE":0,"CLASSIFICATION_TYPE":"U","NORAD_CAT_ID":46074,"ELEMENT_SET_NO":999,"REV_AT_EPOCH":28723,"BSTAR":-0.00047230938,"MEAN_MOTION_DOT":-7.307e-5,"MEAN_MOTION_DDOT":0},{"OBJECT_NAME":"STARLINK-1551","OBJECT_ID":"2020-055BA","EPOCH":"2025-10-14T07:49:39.974304","MEAN_MOTION":15.06396823,"ECCENTRICITY":6.056e-5,"INCLINATION":53.0558,"RA_OF_ASC_NODE":33.6674,"ARG_OF_PERICENTER":349.2458,"MEAN_ANOMALY":10.8518,"EPHEMERIS_TYPE":0,"CLASSIFICATION_TYPE":"U","NORAD_CAT_ID":46075,"ELEMENT_SET_NO":999,"REV_AT_EPOCH":28724,"BSTAR":-7.6317825e-5,"MEAN_MOTION_DOT":-1.418e-5,"MEAN_MOTION_DDOT":0},{"OBJECT_NAME":"STARLINK-1552","OBJECT_ID":"2020-055BB","EPOCH":"2025-10-14T06:51:17.466912","MEAN_MOTION":15.06392596,"ECCENTRICITY":0.00021432,"INCLINATION":53.0543,"RA_OF_ASC_NODE":33.849,"ARG_OF_PERICENTER":81.1431,"MEAN_ANOMALY":278.9801,"EPHEMERIS_TYPE":0,"CLASSIFICATION_TYPE":"U","NORAD_CAT_ID":46076,"ELEMENT_SET_NO":999,"REV_AT_EPOCH":28722,"BSTAR":0.00016765322,"MEAN_MOTION_DOT":2.216e-5,"MEAN_MOTION_DDOT":0},{"OBJECT_NAME":"STARLINK-1559","OBJECT_ID":"2020-055BC","EPOCH":"2025-10-14T00:10:38.812224","MEAN_MOTION":15.1702059,"ECCENTRICITY":0.00044479,"INCLINATION":53.0477,"RA_OF_ASC_NODE":29.5577,"ARG_OF_PERICENTER":288.5335,"MEAN_ANOMALY":71.5175,"EPHEMERIS_TYPE":0,"CLASSIFICATION_TYPE":"U","NORAD_CAT_ID":46077,"ELEMENT_SET_NO":999,"REV_AT_EPOCH":28723,"BSTAR":0.0028206348,"MEAN_MOTION_DOT":0.00056587,"MEAN_MOTION_DDOT":0},{"OBJECT_NAME":"STARLINK-1566","OBJECT_ID":"2020-055BE","EPOCH":"2025-10-14T07:17:49.303104","MEAN_MOTION":15.06386749,"ECCENTRICITY":0.00017232,"INCLINATION":53.0523,"RA_OF_ASC_NODE":33.7679,"ARG_OF_PERICENTER":95.7032,"MEAN_ANOMALY":264.4154,"EPHEMERIS_TYPE":0,"CLASSIFICATION_TYPE":"U","NORAD_CAT_ID":46079,"ELEMENT_SET_NO":999,"REV_AT_EPOCH":28724,"BSTAR":3.9282412e-5,"MEAN_MOTION_DOT":3.03e-6,"MEAN_MOTION_DDOT":0},{"OBJECT_NAME":"STARLINK-1568","OBJECT_ID":"2020-055BF","EPOCH":"2025-10-14T05:56:22.491456","MEAN_MOTION":15.31773281,"ECCENTRICITY":0.00021897,"INCLINATION":53.0665,"RA_OF_ASC_NODE":4.6078,"ARG_OF_PERICENTER":339.6296,"MEAN_ANOMALY":20.4616,"EPHEMERIS_TYPE":0,"CLASSIFICATION_TYPE":"U","NORAD_CAT_ID":46080,"ELEMENT_SET_NO":999,"REV_AT_EPOCH":28763,"BSTAR":0.0010251475,"MEAN_MOTION_DOT":0.00031657,"MEAN_MOTION_DDOT":0},{"OBJECT_NAME":"STARLINK-1578","OBJECT_ID":"2020-055BH","EPOCH":"2025-10-13T14:08:05.290368","MEAN_MOTION":15.06415523,"ECCENTRICITY":0.00010254,"INCLINATION":53.0551,"RA_OF_ASC_NODE":36.9768,"ARG_OF_PERICENTER":84.8285,"MEAN_ANOMALY":275.2821,"EPHEMERIS_TYPE":0,"CLASSIFICATION_TYPE":"U","NORAD_CAT_ID":46082,"ELEMENT_SET_NO":999,"REV_AT_EPOCH":28713,"BSTAR":0.00010661096,"MEAN_MOTION_DOT":1.308e-5,"MEAN_MOTION_DDOT":0},{"OBJECT_NAME":"STARLINK-1579","OBJECT_ID":"2020-055BJ","EPOCH":"2025-10-14T06:55:14.364480","MEAN_MOTION":15.06382453,"ECCENTRICITY":0.00015211,"INCLINATION":53.0538,"RA_OF_ASC_NODE":33.8262,"ARG_OF_PERICENTER":92.211,"MEAN_ANOMALY":267.9053,"EPHEMERIS_TYPE":0,"CLASSIFICATION_TYPE":"U","NORAD_CAT_ID":46083,"ELEMENT_SET_NO":999,"REV_AT_EPOCH":28723,"BSTAR":-8.0397137e-5,"MEAN_MOTION_DOT":-1.478e-5,"MEAN_MOTION_DDOT":0},{"OBJECT_NAME":"STARLINK-1585","OBJECT_ID":"2020-057A","EPOCH":"2025-10-14T08:00:01.999872","MEAN_MOTION":15.12076108,"ECCENTRICITY":0.00015363,"INCLINATION":53.0536,"RA_OF_ASC_NODE":233.562,"ARG_OF_PERICENTER":62.7179,"MEAN_ANOMALY":36.5995,"EPHEMERIS_TYPE":0,"CLASSIFICATION_TYPE":"U","NORAD_CAT_ID":46117,"ELEMENT_SET_NO":999,"REV_AT_EPOCH":576,"BSTAR":0.0044584486,"MEAN_MOTION_DOT":0.00078153,"MEAN_MOTION_DDOT":0},{"OBJECT_NAME":"STARLINK-1593","OBJECT_ID":"2020-057C","EPOCH":"2025-10-14T08:00:01.999872","MEAN_MOTION":15.14056044,"ECCENTRICITY":0.00015456,"INCLINATION":53.054,"RA_OF_ASC_NODE":253.8659,"ARG_OF_PERICENTER":89.2255,"MEAN_ANOMALY":222.5841,"EPHEMERIS_TYPE":0,"CLASSIFICATION_TYPE":"U","NORAD_CAT_ID":46119,"ELEMENT_SET_NO":999,"REV_AT_EPOCH":569,"BSTAR":0.0053332964,"MEAN_MOTION_DOT":0.00099177,"MEAN_MOTION_DDOT":0},{"OBJECT_NAME":"STARLINK-1601","OBJECT_ID":"2020-057D","EPOCH":"2025-10-14T08:00:01.999872","MEAN_MOTION":15.13601537,"ECCENTRICITY":0.00013385,"INCLINATION":53.0536,"RA_OF_ASC_NODE":253.5213,"ARG_OF_PERICENTER":79.1472,"MEAN_ANOMALY":130.38,"EPHEMERIS_TYPE":0,"CLASSIFICATION_TYPE":"U","NORAD_CAT_ID":46120,"ELEMENT_SET_NO":999,"REV_AT_EPOCH":580,"BSTAR":0.057206231,"MEAN_MOTION_DOT":0.01128286,"MEAN_MOTION_DDOT":0},{"OBJECT_NAME":"STARLINK-1605","OBJECT_ID":"2020-057G","EPOCH":"2025-10-14T01:12:41.830560","MEAN_MOTION":15.44113137,"ECCENTRICITY":0.00132925,"INCLINATION":53.0501,"RA_OF_ASC_NODE":202.7407,"ARG_OF_PERICENTER":86.8088,"MEAN_ANOMALY":273.4438,"EPHEMERIS_TYPE":0,"CLASSIFICATION_TYPE":"U","NORAD_CAT_ID":46123,"ELEMENT_SET_NO":999,"REV_AT_EPOCH":28597,"BSTAR":0.0023596661,"MEAN_MOTION_DOT":0.0011117,"MEAN_MOTION_DDOT":0},{"OBJECT_NAME":"STARLINK-1614","OBJECT_ID":"2020-057H","EPOCH":"2025-10-14T04:08:35.102400","MEAN_MOTION":15.44642205,"ECCENTRICITY":0.00141039,"INCLINATION":53.0477,"RA_OF_ASC_NODE":201.9954,"ARG_OF_PERICENTER":86.7683,"MEAN_ANOMALY":273.4936,"EPHEMERIS_TYPE":0,"CLASSIFICATION_TYPE":"U","NORAD_CAT_ID":46124,"ELEMENT_SET_NO":999,"REV_AT_EPOCH":28472,"BSTAR":0.0024616013,"MEAN_MOTION_DOT":0.00118255,"MEAN_MOTION_DDOT":0},{"OBJECT_NAME":"STARLINK-1621","OBJECT_ID":"2020-057L","EPOCH":"2025-10-14T08:00:01.999872","MEAN_MOTION":15.370597,"ECCENTRICITY":0.0005235,"INCLINATION":53.0523,"RA_OF_ASC_NODE":229.5405,"ARG_OF_PERICENTER":110.801,"MEAN_ANOMALY":67.9464,"EPHEMERIS_TYPE":0,"CLASSIFICATION_TYPE":"U","NORAD_CAT_ID":46127,"ELEMENT_SET_NO":999,"REV_AT_EPOCH":560,"BSTAR":0.0040851624,"MEAN_MOTION_DOT":0.00153051,"MEAN_MOTION_DDOT":0}]
